{
  "name": "SATGUS",
  "line1": "1 62713U 25009DJ  26005.16950780  .00009878  00000+0  82545-3 0  9992",
  "line2": "2 62713  97.7190  88.0530 0001014  10.0796 350.0447 14.98715703 53126",
  "fetched_at": "2026-01-07T00:19:18.028160+00:00"
}